{
  "type": "FeatureCollection",
  "features": [
    {
      "type": "Feature",
      "properties": {
        "norad_id": 66664,
        "name": "SOYUZ-MS 28",
        "group": "last-30-days",
        "lat": -8.538242254612385,
        "lon": 19.616500705338083,
        "alt_km": 418.2452572232005,
        "timestamp": "2025-12-02T13:52:16.066817+00:00",
        "meta_object_name": "SOYUZ-MS 28",
        "meta_object_id": "2025-275A",
        "meta_epoch": "2025-12-02T02:12:50.598720",
        "meta_mean_motion": 15.49237019,
        "meta_eccentricity": 0.00036389,
        "meta_inclination": 51.6314,
        "meta_ra_of_asc_node": 195.1903,
        "meta_arg_of_pericenter": 193.8265,
        "meta_mean_anomaly": 166.2625,
        "meta_ephemeris_type": 0,
        "meta_classification_type": "U",
        "meta_norad_cat_id": 66664,
        "meta_element_set_no": 999,
        "meta_rev_at_epoch": 79,
        "meta_bstar": 0.00017380747,
        "meta_mean_motion_dot": 9.217e-05,
        "meta_mean_motion_ddot": 0,
        "tle_line1": "1 66664U 25275A   25336.09225230  .00009217  00000+0  17381-3 0  9992",
        "tle_line2": "2 66664  51.6314 195.1903 0003638 193.8265 166.2625 15.49237019   797"
      },
      "geometry": {
        "type": "Point",
        "coordinates": [
          19.616500705338083,
          -8.538242254612385
        ]
      }
    }
  ]
}